[
  {
    "OBJECT_NAME": "GAOFEN-3",
    "OBJECT_ID": "2016-049A",
    "EPOCH": "2025-05-31T20:27:19.733472",
    "MEAN_MOTION": 14.42154289,
    "ECCENTRICITY": 0.0001152,
    "INCLINATION": 98.4029,
    "RA_OF_ASC_NODE": 160.3456,
    "ARG_OF_PERICENTER": 112.4364,
    "MEAN_ANOMALY": 247.6947,
    "EPHEMERIS_TYPE": 0,
    "CLASSIFICATION_TYPE": "U",
    "NORAD_CAT_ID": 41727,
    "ELEMENT_SET_NO": 999,
    "REV_AT_EPOCH": 46367,
    "BSTAR": 2.6797e-05,
    "MEAN_MOTION_DOT": 4.5e-07,
    "MEAN_MOTION_DDOT": 0
  },
  {
    "OBJECT_NAME": "SKYSAT-C4",
    "OBJECT_ID": "2016-058B",
    "EPOCH": "2025-05-31T14:21:08.826912",
    "MEAN_MOTION": 15.36511688,
    "ECCENTRICITY": 0.000222,
    "INCLINATION": 96.9562,
    "RA_OF_ASC_NODE": 186.8657,
    "ARG_OF_PERICENTER": 148.5451,
    "MEAN_ANOMALY": 211.5927,
    "EPHEMERIS_TYPE": 0,
    "CLASSIFICATION_TYPE": "U",
    "NORAD_CAT_ID": 41771,
    "ELEMENT_SET_NO": 999,
    "REV_AT_EPOCH": 48666,
    "BSTAR": 0.000279,
    "MEAN_MOTION_DOT": 9.869e-05,
    "MEAN_MOTION_DDOT": 0
  },
  {
    "OBJECT_NAME": "SKYSAT-C5",
    "OBJECT_ID": "2016-058C",
    "EPOCH": "2025-05-31T09:12:35.871264",
    "MEAN_MOTION": 15.36238736,
    "ECCENTRICITY": 0.0008362,
    "INCLINATION": 97.1006,
    "RA_OF_ASC_NODE": 202.2801,
    "ARG_OF_PERICENTER": 88.5486,
    "MEAN_ANOMALY": 271.6716,
    "EPHEMERIS_TYPE": 0,
    "CLASSIFICATION_TYPE": "U",
    "NORAD_CAT_ID": 41772,
    "ELEMENT_SET_NO": 999,
    "REV_AT_EPOCH": 48517,
    "BSTAR": 0.00027318,
    "MEAN_MOTION_DOT": 9.584e-05,
    "MEAN_MOTION_DDOT": 0
  },
  {
    "OBJECT_NAME": "SKYSAT-C2",
    "OBJECT_ID": "2016-058D",
    "EPOCH": "2025-05-31T13:58:26.446656",
    "MEAN_MOTION": 15.32621897,
    "ECCENTRICITY": 0.0003753,
    "INCLINATION": 97.054,
    "RA_OF_ASC_NODE": 184.8158,
    "ARG_OF_PERICENTER": 18.2354,
    "MEAN_ANOMALY": 341.9022,
    "EPHEMERIS_TYPE": 0,
    "CLASSIFICATION_TYPE": "U",
    "NORAD_CAT_ID": 41773,
    "ELEMENT_SET_NO": 999,
    "REV_AT_EPOCH": 48643,
    "BSTAR": 0.00026659,
    "MEAN_MOTION_DOT": 8.327e-05,
    "MEAN_MOTION_DDOT": 0
  },
  {
    "OBJECT_NAME": "SKYSAT-C3",
    "OBJECT_ID": "2016-058E",
    "EPOCH": "2025-05-31T13:34:16.418784",
    "MEAN_MOTION": 15.37547941,
    "ECCENTRICITY": 0.0002038,
    "INCLINATION": 96.9532,
    "RA_OF_ASC_NODE": 195.1245,
    "ARG_OF_PERICENTER": 121.8044,
    "MEAN_ANOMALY": 238.3401,
    "EPHEMERIS_TYPE": 0,
    "CLASSIFICATION_TYPE": "U",
    "NORAD_CAT_ID": 41774,
    "ELEMENT_SET_NO": 999,
    "REV_AT_EPOCH": 48721,
    "BSTAR": 0.0002668,
    "MEAN_MOTION_DOT": 9.755e-05,
    "MEAN_MOTION_DDOT": 0
  },
  {
    "OBJECT_NAME": "ALSAT 1B",
    "OBJECT_ID": "2016-059C",
    "EPOCH": "2025-05-31T20:11:06.005472",
    "MEAN_MOTION": 14.71824702,
    "ECCENTRICITY": 0.0009808,
    "INCLINATION": 97.7886,
    "RA_OF_ASC_NODE": 171.9208,
    "ARG_OF_PERICENTER": 20.9465,
    "MEAN_ANOMALY": 339.2142,
    "EPHEMERIS_TYPE": 0,
    "CLASSIFICATION_TYPE": "U",
    "NORAD_CAT_ID": 41785,
    "ELEMENT_SET_NO": 999,
    "REV_AT_EPOCH": 46447,
    "BSTAR": 7.6684e-05,
    "MEAN_MOTION_DOT": 4.32e-06,
    "MEAN_MOTION_DDOT": 0
  },
  {
    "OBJECT_NAME": "PATHFINDER 1",
    "OBJECT_ID": "2016-059E",
    "EPOCH": "2025-05-31T14:13:12.126144",
    "MEAN_MOTION": 14.66911464,
    "ECCENTRICITY": 0.0028394,
    "INCLINATION": 97.8129,
    "RA_OF_ASC_NODE": 163.4321,
    "ARG_OF_PERICENTER": 345.6498,
    "MEAN_ANOMALY": 14.3897,
    "EPHEMERIS_TYPE": 0,
    "CLASSIFICATION_TYPE": "U",
    "NORAD_CAT_ID": 41787,
    "ELEMENT_SET_NO": 999,
    "REV_AT_EPOCH": 46375,
    "BSTAR": 0.00014067,
    "MEAN_MOTION_DOT": 7.45e-06,
    "MEAN_MOTION_DDOT": 0
  },
  {
    "OBJECT_NAME": "SCATSAT 1",
    "OBJECT_ID": "2016-059H",
    "EPOCH": "2025-05-31T14:40:25.761792",
    "MEAN_MOTION": 14.78188633,
    "ECCENTRICITY": 0.005681,
    "INCLINATION": 98.1698,
    "RA_OF_ASC_NODE": 205.6276,
    "ARG_OF_PERICENTER": 37.3212,
    "MEAN_ANOMALY": 323.1924,
    "EPHEMERIS_TYPE": 0,
    "CLASSIFICATION_TYPE": "U",
    "NORAD_CAT_ID": 41790,
    "ELEMENT_SET_NO": 999,
    "REV_AT_EPOCH": 4519,
    "BSTAR": 0.0002041,
    "MEAN_MOTION_DOT": 1.462e-05,
    "MEAN_MOTION_DDOT": 0
  },
  {
    "OBJECT_NAME": "GOKTURK 1A",
    "OBJECT_ID": "2016-073A",
    "EPOCH": "2025-05-31T21:27:13.014432",
    "MEAN_MOTION": 14.62804212,
    "ECCENTRICITY": 0.0001382,
    "INCLINATION": 98.115,
    "RA_OF_ASC_NODE": 47.0678,
    "ARG_OF_PERICENTER": 85.2792,
    "MEAN_ANOMALY": 274.8567,
    "EPHEMERIS_TYPE": 0,
    "CLASSIFICATION_TYPE": "U",
    "NORAD_CAT_ID": 41875,
    "ELEMENT_SET_NO": 999,
    "REV_AT_EPOCH": 45308,
    "BSTAR": 9.3932e-05,
    "MEAN_MOTION_DOT": 4.33e-06,
    "MEAN_MOTION_DDOT": 0
  },
  {
    "OBJECT_NAME": "RESOURCESAT-2A",
    "OBJECT_ID": "2016-074A",
    "EPOCH": "2025-05-31T19:25:21.973440",
    "MEAN_MOTION": 14.21677723,
    "ECCENTRICITY": 0.0002146,
    "INCLINATION": 98.6057,
    "RA_OF_ASC_NODE": 223.4853,
    "ARG_OF_PERICENTER": 75.6788,
    "MEAN_ANOMALY": 284.4628,
    "EPHEMERIS_TYPE": 0,
    "CLASSIFICATION_TYPE": "U",
    "NORAD_CAT_ID": 41877,
    "ELEMENT_SET_NO": 999,
    "REV_AT_EPOCH": 44012,
    "BSTAR": 8.3939e-05,
    "MEAN_MOTION_DOT": 1.41e-06,
    "MEAN_MOTION_DDOT": 0
  },
  {
    "OBJECT_NAME": "CARTOSAT-2D",
    "OBJECT_ID": "2017-008A",
    "EPOCH": "2025-05-31T14:37:19.163712",
    "MEAN_MOTION": 15.19198552,
    "ECCENTRICITY": 0.0006361,
    "INCLINATION": 97.4614,
    "RA_OF_ASC_NODE": 211.7158,
    "ARG_OF_PERICENTER": 129.525,
    "MEAN_ANOMALY": 230.6547,
    "EPHEMERIS_TYPE": 0,
    "CLASSIFICATION_TYPE": "U",
    "NORAD_CAT_ID": 41948,
    "ELEMENT_SET_NO": 999,
    "REV_AT_EPOCH": 45964,
    "BSTAR": 0.00021707,
    "MEAN_MOTION_DOT": 4.502e-05,
    "MEAN_MOTION_DDOT": 0
  },
  {
    "OBJECT_NAME": "SENTINEL-2B",
    "OBJECT_ID": "2017-013A",
    "EPOCH": "2025-05-31T19:24:50.774400",
    "MEAN_MOTION": 14.30819686,
    "ECCENTRICITY": 0.0001097,
    "INCLINATION": 98.5698,
    "RA_OF_ASC_NODE": 227.0634,
    "ARG_OF_PERICENTER": 92.3436,
    "MEAN_ANOMALY": 267.7872,
    "EPHEMERIS_TYPE": 0,
    "CLASSIFICATION_TYPE": "U",
    "NORAD_CAT_ID": 42063,
    "ELEMENT_SET_NO": 999,
    "REV_AT_EPOCH": 43011,
    "BSTAR": 6.6237e-05,
    "MEAN_MOTION_DOT": 1.3e-06,
    "MEAN_MOTION_DDOT": 0
  },
  {
    "OBJECT_NAME": "ZHUHAI-1 02 (CAS-4B)",
    "OBJECT_ID": "2017-034B",
    "EPOCH": "2025-05-31T20:09:18.102240",
    "MEAN_MOTION": 15.62176314,
    "ECCENTRICITY": 0.0020929,
    "INCLINATION": 43.008,
    "RA_OF_ASC_NODE": 13.9351,
    "ARG_OF_PERICENTER": 233.7735,
    "MEAN_ANOMALY": 126.1195,
    "EPHEMERIS_TYPE": 0,
    "CLASSIFICATION_TYPE": "U",
    "NORAD_CAT_ID": 42759,
    "ELEMENT_SET_NO": 999,
    "REV_AT_EPOCH": 44123,
    "BSTAR": 0.00065185,
    "MEAN_MOTION_DOT": 0.00059571,
    "MEAN_MOTION_DDOT": 0
  },
  {
    "OBJECT_NAME": "NUSAT-3 (MILANESAT)",
    "OBJECT_ID": "2017-034C",
    "EPOCH": "2025-05-31T20:18:43.628256",
    "MEAN_MOTION": 15.91266272,
    "ECCENTRICITY": 0.0023688,
    "INCLINATION": 42.9889,
    "RA_OF_ASC_NODE": 334.0141,
    "ARG_OF_PERICENTER": 284.5892,
    "MEAN_ANOMALY": 75.2356,
    "EPHEMERIS_TYPE": 0,
    "CLASSIFICATION_TYPE": "U",
    "NORAD_CAT_ID": 42760,
    "ELEMENT_SET_NO": 999,
    "REV_AT_EPOCH": 44170,
    "BSTAR": 0.00098724,
    "MEAN_MOTION_DOT": 0.00333514,
    "MEAN_MOTION_DDOT": 4.955e-05
  }
]