GAOFEN-3                
1 41727U 16049A   25151.85231173  .00000045  00000+0  26797-4 0  9998
2 41727  98.4029 160.3456 0001152 112.4364 247.6947 14.42154289463675
SKYSAT-C4               
1 41771U 16058B   25151.59801883  .00009869  00000+0  27900-3 0  9998
2 41771  96.9562 186.8657 0002220 148.5451 211.5927 15.36511688486665
SKYSAT-C5               
1 41772U 16058C   25151.38374851  .00009584  00000+0  27318-3 0  9993
2 41772  97.1006 202.2801 0008362  88.5486 271.6716 15.36238736485178
SKYSAT-C2               
1 41773U 16058D   25151.58225054  .00008327  00000+0  26659-3 0  9997
2 41773  97.0540 184.8158 0003753  18.2354 341.9022 15.32621897486435
SKYSAT-C3               
1 41774U 16058E   25151.56546781  .00009755  00000+0  26680-3 0  9999
2 41774  96.9532 195.1245 0002038 121.8044 238.3401 15.37547941487218
ALSAT 1B                
1 41785U 16059C   25151.84104173  .00000432  00000+0  76684-4 0  9991
2 41785  97.7886 171.9208 0009808  20.9465 339.2142 14.71824702464476
PATHFINDER 1            
1 41787U 16059E   25151.59250146  .00000745  00000+0  14067-3 0  9990
2 41787  97.8129 163.4321 0028394 345.6498  14.3897 14.66911464463759
SCATSAT 1               
1 41790U 16059H   25151.61140928  .00001462  00000+0  20410-3 0  9999
2 41790  98.1698 205.6276 0056810  37.3212 323.1924 14.78188633 45192
GOKTURK 1A              
1 41875U 16073A   25151.89390063  .00000433  00000+0  93932-4 0  9993
2 41875  98.1150  47.0678 0001382  85.2792 274.8567 14.62804212453089
RESOURCESAT-2A          
1 41877U 16074A   25151.80928210  .00000141  00000+0  83939-4 0  9990
2 41877  98.6057 223.4853 0002146  75.6788 284.4628 14.21677723440120
CARTOSAT-2D             
1 41948U 17008A   25151.60924958  .00004502  00000+0  21707-3 0  9999
2 41948  97.4614 211.7158 0006361 129.5250 230.6547 15.19198552459645
SENTINEL-2B             
1 42063U 17013A   25151.80892100  .00000130  00000+0  66237-4 0  9990
2 42063  98.5698 227.0634 0001097  92.3436 267.7872 14.30819686430114
ZHUHAI-1 02 (CAS-4B)    
1 42759U 17034B   25151.83979285  .00059571  00000+0  65185-3 0  9991
2 42759  43.0080  13.9351 0020929 233.7735 126.1195 15.62176314441233
NUSAT-3 (MILANESAT)     
1 42760U 17034C   25151.84633829  .00333514  49550-4  98724-3 0  9990
2 42760  42.9889 334.0141 0023688 284.5892  75.2356 15.91266272441707
